OBJECT_NAME,OBJECT_ID,EPOCH,MEAN_MOTION,ECCENTRICITY,INCLINATION,RA_OF_ASC_NODE,ARG_OF_PERICENTER,MEAN_ANOMALY,EPHEMERIS_TYPE,CLASSIFICATION_TYPE,NORAD_CAT_ID,ELEMENT_SET_NO,REV_AT_EPOCH,BSTAR,MEAN_MOTION_DOT,MEAN_MOTION_DDOT
STARLINK-37998,2026-145C,2026-07-15T08:00:01.999872,15.75162566,.00015113,97.2837,43.1869,83.3346,108.5358,0,U,69679,999,445,-.36633484E-3,-.54361E-3,0
STARLINK-37994,2026-145D,2026-07-15T13:19:16.477248,15.75216527,.00006439,97.2832,43.4138,44.0709,316.0608,0,U,69680,999,323,.88086225E-3,.133481E-2,0
STARLINK-37992,2026-145E,2026-07-15T13:18:46.165536,15.75218967,.00007245,97.2836,43.4135,3.8713,356.2557,0,U,69681,999,323,.12267509E-2,.187147E-2,0
STARLINK-37997,2026-145F,2026-07-15T20:00:01.999008,15.75206611,.0001208,97.2837,43.7083,93.9761,49.2832,0,U,69682,999,453,-.79851E-3,-.117691E-2,0
STARLINK-37990,2026-145G,2026-07-15T20:00:01.999008,15.75212097,.0001191,97.2836,43.7066,78.4470,62.8016,0,U,69683,999,453,-.83611E-3,-.123176E-2,0
STARLINK-37951,2026-145H,2026-07-15T13:16:44.098752,15.75210076,.0000887,97.2832,43.4154,7.7602,352.3677,0,U,69684,999,323,.89471E-3,.135576E-2,0
STARLINK-37957,2026-145J,2026-07-15T13:15:11.731968,15.75221529,.00012539,97.2828,43.4182,58.1811,301.9576,0,U,69685,999,323,.89357556E-3,.135471E-2,0
STARLINK-37968,2026-145K,2026-07-15T13:06:34.528608,15.75214668,.00009082,97.2835,43.4268,32.5094,327.6227,0,U,69686,999,323,.10835428E-2,.164819E-2,0
STARLINK-37977,2026-145L,2026-07-15T13:05:33.451584,15.75222047,.00009109,97.2839,43.4285,22.4372,337.6933,0,U,69687,999,323,.9633879E-3,.146253E-2,0
STARLINK-37908,2026-145M,2026-07-15T13:02:30.503040,15.75213317,.0001319,97.2834,43.4312,10.3273,349.8019,0,U,69688,999,323,.97874891E-3,.148573E-2,0
STARLINK-37979,2026-145N,2026-07-15T13:01:59.971008,15.75225851,.00007314,97.2845,43.4315,8.9679,351.1599,0,U,69689,999,323,.11519302E-2,.175536E-2,0
STARLINK-37940,2026-145P,2026-07-15T13:00:31.360032,15.74653863,.00032483,97.2826,43.4321,236.6285,123.4670,0,U,69690,999,323,-.6520495E-2,-.860552E-2,0
STARLINK-37961,2026-145Q,2026-07-15T12:55:53.997024,15.75212867,.00014441,97.2830,43.4364,86.6136,273.5294,0,U,69691,999,323,.83383173E-3,.126221E-2,0
STARLINK-37787,2026-145R,2026-07-15T12:52:51.128832,15.75209882,.00011492,97.2829,43.4396,67.7661,292.3726,0,U,69692,999,323,.82280895E-3,.124508E-2,0
STARLINK-37962,2026-145S,2026-07-15T12:50:18.902400,15.75210378,.00011258,97.2831,43.4422,64.5794,295.5587,0,U,69693,999,323,.95279565E-3,.144542E-2,0
STARLINK-37953,2026-145T,2026-07-15T12:54:24.008832,15.75072706,.00009601,97.2834,43.4389,140.1295,220.0040,0,U,69694,999,323,-.48427951E-3,-.71397E-3,0
STARLINK-37926,2026-145U,2026-07-15T20:00:01.999008,15.75222413,.0001564,97.2834,43.7508,87.7632,151.4724,0,U,69695,999,453,-.87455E-3,-.128812E-2,0
STARLINK-37959,2026-145V,2026-07-15T12:51:50.200416,15.75206831,.00010371,97.2832,43.4405,33.9321,326.2010,0,U,69696,999,323,.77011214E-3,.116399E-2,0
STARLINK-37976,2026-145W,2026-07-15T12:47:46.322592,15.75252510,.00009304,97.2825,43.4447,98.2106,261.9264,0,U,69697,999,323,.11456825E-2,.174769E-2,0
STARLINK-37912,2026-145X,2026-07-15T12:46:14.816352,15.75249504,.00014751,97.2823,43.4471,107.1267,253.0160,0,U,69698,999,323,.10256375E-2,.156079E-2,0
STARLINK-37974,2026-145Y,2026-07-15T12:45:13.802400,15.75246703,.00011143,97.2827,43.4477,84.6899,275.4494,0,U,69699,999,323,.97609926E-3,.14838E-2,0
STARLINK-37955,2026-145Z,2026-07-15T20:19:04.239840,15.75211230,.0001391,97.2830,43.7842,92.8657,267.2767,0,U,69700,999,328,.76712E-3,.115964E-2,0
STRIX-8,2026-146A,2026-07-15T19:35:36.605760,15.04437162,.0007086,41.9903,9.6519,26.8552,333.2641,0,U,69701,999,287,.1743E-3,.2288E-4,0
ELECTRON R/B,2026-146B,2026-07-15T19:15:03.335616,15.75637069,.0167131,42.0736,358.9122,24.6344,336.2381,0,U,69702,999,300,.10176E-2,.417328E-2,.62506E-4
ELECTRON KICK STAGE R/B,2026-146C,2026-07-15T17:50:37.938624,15.04945952,.0008897,41.9887,9.9665,27.4126,332.7169,0,U,69703,999,286,.16288E-3,.2156E-4,0
STARLINK-38055,2026-147A,2026-07-15T13:10:36.537600,15.80953977,.0000593,97.2820,232.9552,304.1385,55.9827,0,U,69704,999,391,.15579E-2,.311122E-2,0
STARLINK-37898,2026-147B,2026-07-15T01:00:11.669472,15.80922505,.00013221,97.2835,232.4215,83.6910,276.4509,0,U,69705,999,383,.14304744E-2,.284363E-2,0
STARLINK-37970,2026-147C,2026-07-15T00:59:06.742464,15.80913938,.00011242,97.2829,232.4225,112.0066,248.1322,0,U,69706,999,383,.13162356E-2,.260828E-2,0
STARLINK-37975,2026-147D,2026-07-15T13:07:15.445056,15.80950238,.00003048,97.2829,232.9594,305.8001,54.3239,0,U,69707,999,391,.15235885E-2,.303973E-2,0
STARLINK-37972,2026-147E,2026-07-15T02:28:05.976480,15.80837116,.00007247,97.2831,232.4913,112.6643,247.4702,0,U,69708,999,384,.70898301E-3,.137961E-2,0
